MALLIGYONG-1            
1 58400U 23179A   24291.11494742  .00009848  00000+0  44173-3 0  9999
2 58400  97.3836 175.8148 0008935  20.4930 339.6663 15.21370347 50264
